[{"OBJECT_NAME":"STARLINK-2128","OBJECT_ID":"2021-005BH","EPOCH":"2026-03-09T22:00:01.999584","MEAN_MOTION":15.60188382,"ECCENTRICITY":0.00044922,"INCLINATION":53.0533,"RA_OF_ASC_NODE":14.9701,"ARG_OF_PERICENTER":123.8508,"MEAN_ANOMALY":68.763,"EPHEMERIS_TYPE":0,"CLASSIFICATION_TYPE":"U","NORAD_CAT_ID":47404,"ELEMENT_SET_NO":999,"REV_AT_EPOCH":592,"BSTAR":0.0018166988,"MEAN_MOTION_DOT":0.00153048,"MEAN_MOTION_DDOT":0},{"OBJECT_NAME":"HRC MONOBLOCK CAMERA","OBJECT_ID":"1998-067XR","EPOCH":"2026-03-09T09:07:55.754688","MEAN_MOTION":15.62163367,"ECCENTRICITY":0.00036673,"INCLINATION":51.6279,"RA_OF_ASC_NODE":67.0928,"ARG_OF_PERICENTER":90.6396,"MEAN_ANOMALY":269.5018,"EPHEMERIS_TYPE":0,"CLASSIFICATION_TYPE":"U","NORAD_CAT_ID":66052,"ELEMENT_SET_NO":999,"REV_AT_EPOCH":2234,"BSTAR":0.00060520784,"MEAN_MOTION_DOT":0.0005407,"MEAN_MOTION_DDOT":0}]
